[{"OBJECT_NAME":"STARLINK-31933","OBJECT_ID":"2024-098S","EPOCH":"2026-03-09T00:21:06.716448","MEAN_MOTION":15.27564911,"ECCENTRICITY":8.855e-5,"INCLINATION":42.9985,"RA_OF_ASC_NODE":281.7463,"ARG_OF_PERICENTER":283.3365,"MEAN_ANOMALY":76.7387,"EPHEMERIS_TYPE":0,"CLASSIFICATION_TYPE":"U","NORAD_CAT_ID":59874,"ELEMENT_SET_NO":999,"REV_AT_EPOCH":10174,"BSTAR":0.00011715851,"MEAN_MOTION_DOT":2.962e-5,"MEAN_MOTION_DDOT":0},{"OBJECT_NAME":"TEVEL2-8","OBJECT_ID":"2025-052AF","EPOCH":"2026-03-09T16:02:08.542752","MEAN_MOTION":15.28392908,"ECCENTRICITY":0.0008031,"INCLINATION":97.4055,"RA_OF_ASC_NODE":324.2923,"ARG_OF_PERICENTER":124.9191,"MEAN_ANOMALY":235.2804,"EPHEMERIS_TYPE":0,"CLASSIFICATION_TYPE":"U","NORAD_CAT_ID":63239,"ELEMENT_SET_NO":999,"REV_AT_EPOCH":5480,"BSTAR":0.00069303947,"MEAN_MOTION_DOT":0.0001913,"MEAN_MOTION_DDOT":0}]
